0 IRIDIUM 119
1 42959U 17061E   24020.95036429  .00000295  00000-0  98138-4 0  9999
2 42959  86.3955  32.2536 0002311  85.1635 274.9825 14.34217506328938
0 IRIDIUM 107
1 42960U 17061F   24020.96936270  .00000259  00000-0  85402-4 0  9995
2 42960  86.3954  32.2616 0001977  84.6830 275.4592 14.34216123328948
0 IRIDIUM 132
1 42961U 17061G   24020.55711584  .00000298  00000-0  99304-4 0  9999
2 42961  86.3955  32.4196 0001997  83.5309 276.6114 14.34217960328882
0 IRIDIUM 136
1 42962U 17061H   24020.93767644  .00000279  00000-0  92662-4 0  9999
2 42962  86.3955  32.2630 0002427  87.4414 272.7060 14.34217840328955
0 IRIDIUM 139
1 42963U 17061J   24020.94401691  .00000290  00000-0  96356-4 0  9995
2 42963  86.3956  32.3083 0002020  86.0988 274.0438 14.34217434328964
0 IRIDIUM 125
1 42964U 17061K   24020.58246484  .00000162  00000-0  50701-4 0  9995
2 42964  86.3958  32.5045 0002279  81.5614 278.5840 14.34215136328928
0 IRIDIUM 135
1 43070U 17083A   24020.90545268  .00000111  00000-0  32713-4 0  9993
2 43070  86.3993 329.0800 0001977  91.1462 268.9960 14.34217092318266
0 IRIDIUM 138
1 43071U 17083B   24020.93082183  .00000284  00000-0  94485-4 0  9994
2 43071  86.3982 328.8054 0002270  77.6134 282.5316 14.34217338318254
